ZHONGXING-26            
1 55686U 23023A   26060.47193301 -.00000372  00000+0  00000+0 0  9993
2 55686   0.0638  73.8220 0003383 319.4328  61.0070  1.00270209 11151
LUCH-5X (OLYMP-K 2)     
1 55841U 23031A   26060.75503512  .00000015  00000+0  00000+0 0  9998
2 55841   0.0263  90.6628 0001672 123.7666 278.8944  1.00272925 10869
GAOFEN-13 02            
1 55912U 23036A   26060.44628400 -.00000237  00000+0  00000+0 0  9999
2 55912   1.0338 347.3841 0005148 333.5447 147.1290  1.00268561 11012
SES-18                  
1 55970U 23038A   26060.42669280 -.00000118  00000+0  00000+0 0  9992
2 55970   0.0668 273.2835 0002456  23.2371 273.1860  1.00265374 11022
SES-19                  
1 55971U 23038B   26060.52030640  .00000069  00000+0  00000+0 0  9990
2 55971   0.0592 283.7981 0001788  46.9124 240.9938  1.00271073 11001
INTELSAT 40E (IS-40E)   
1 56174U 23052A   26060.33100348 -.00000192  00000+0  00000+0 0  9992
2 56174   0.0108 160.0019 0000786 196.2460 191.0199  1.00265658 10745
VIASAT-3 F1             
1 56370U 23060A   26060.15739147  .00000000  00000+0  00000+0 0  9991
2 56370   0.0194 152.2932 0000509 270.4497  63.9230  1.00270278 10357
ARCTURUS                
1 56371U 23060B   26060.39020598 -.00000080  00000+0  00000+0 0  9990
2 56371   2.4966  81.3197 0000494 342.7635 308.0391  1.00272704 10375
GS-1                    
1 56372U 23060C   26058.87094530 -.00000186  00000+0  00000+0 0  9995
2 56372   2.4435  81.1492 0004778 259.4270 213.4380  1.00300216  6441
BEIDOU-3 G4             
1 56564U 23066A   26060.48586404 -.00000130  00000+0  00000+0 0  9999
2 56564   0.6544 310.4982 0001829 163.9264  19.7943  1.00271975 10315
ARABSAT-7B (BADR-8)     
1 56757U 23075A   26060.30969227  .00000126  00000+0  00000+0 0  9996
2 56757   0.0797  29.7834 0005524 320.5251 306.2688  1.00270846 10037
NVS-01 (IRNSS-1J)       
1 56759U 23076A   26060.46155991 -.00000358  00000+0  00000+0 0  9999
2 56759   2.4258 248.7393 0007624  43.8433 162.3108  1.00275073 10035
NUSANTARA TIGA (SATRIA) 
1 57045U 23086A   26060.40476604  .00000000  00000+0  00000+0 0  9993
2 57045   0.0109 289.0615 0005944  36.3996 125.4654  1.00267090  8686
H2SAT (HEINRICH HERTZ)  
1 57213U 23093A   26060.30466559 -.00000015  00000+0  00000+0 0  9992
2 57213   0.0531 290.6934 0001340 169.1190 169.6663  1.00282210  9830
SYRACUSE 4B             
1 57214U 23093B   26060.37451925 -.00000072  00000+0  00000+0 0  9994
2 57214   0.0154 126.3932 0000250 224.7949 296.3149  1.00271864  5885
JUPITER 3 (ECHOSTAR 24) 
1 57479U 23108A   26059.82369894 -.00000168  00000+0  00000+0 0  9991
2 57479   0.0119 129.2934 0001092 207.5755  23.0888  1.00271931  9561
GALAXY 37 (G-37)        
1 57493U 23112A   26060.51699250  .00000000  00000+0  00000+0 0  9996
2 57493   0.0267 133.5307 0002104 209.5454 235.3647  1.00269896  9463
LUDI TANCE-4 01A        
1 57624U 23120A   26060.32234567 -.00000212  00000+0  00000+0 0  9992
2 57624  15.1773 196.6374 0005404 105.3645  62.8216  1.00269213  9461
TJS-10                  
1 58204U 23169A   26060.77488487 -.00000360  00000+0  00000+0 0  9995
2 58204   2.2673  81.8024 0011235 232.6487 250.1732  0.99766915  8468
ZHONGXING-6E            
1 58253U 23172A   26060.47002634 -.00000380  00000+0  00000+0 0  9998
2 58253   0.0124 116.1692 0002535 231.9449  95.8745  1.00269659  8571
YAOGAN-41               
1 58582U 23197A   26060.47149968 -.00000380  00000+0  00000+0 0  9992
2 58582   3.3282 311.5523 0010373 182.3415 318.2642  1.00276385  8248
OVZON-3                 
1 58698U 24003A   26060.49981134  .00000033  00000+0  00000+0 0  9992
2 58698   0.0137 158.8747 0000222 130.4049 109.6041  1.00273383  6369
INSAT-3DS               
1 58990U 24033A   26060.39211265 -.00000174  00000+0  00000+0 0  9997
2 58990   0.0629 266.1361 0002295  85.9860  30.2937  1.00270381 45981
MERAH PUTIH 2           
1 58995U 24035A   26060.39817935 -.00000376  00000+0  00000+0 0  9994
2 58995   0.0100 177.2365 0001063 163.1004  75.1386  1.00272299  7509
TJS-11                  
1 59020U 24037A   26060.25699872 -.00000384  00000+0  00000+0 0  9998
2 59020   4.3441 325.7641 0005693  37.2683   8.8310  1.00275413  7509
HULIANWAN GAOGUI-01 (H*)
1 59069U 24040A   26060.31099229  .00000138  00000+0  00000+0 0  9998
2 59069   0.0615 314.2618 0004243  42.5849 307.8895  1.00277077  6246
EUTELSAT 36D            
1 59346U 24059A   26060.35183495  .00000137  00000+0  00000+0 0  9998
2 59346   0.0070 104.6171 0000354 205.0389  12.0033  1.00270588  7068
PAKSAT-MM1              
1 59915U 24104A   26060.35183495  .00000135  00000+0  00000+0 0  9999
2 59915   0.0101 134.1145 0003304 195.0385 354.8707  1.00273939  6445
ASTRA 1P (SES-24)       
1 60086U 24115A   26060.18308693  .00000101  00000+0  00000+0 0  9995
2 60086   0.0589 334.1299 0005009 349.8668 280.0749  1.00268917  6115
GOES 19                 
1 60133U 24119A   26060.43223949 -.00000267  00000+0  00000+0 0  9994
2 60133   0.0254 282.0436 0000816  88.2243 229.3523  1.00271551  5882
ZHONGXING-3A            
1 60179U 24122A   26060.32459902  .00000000  00000+0  00000+0 0  9990
2 60179   0.0259 117.6735 0001688 307.8431 312.0470  1.00269680  6229
