OBJECT_NAME,OBJECT_ID,EPOCH,MEAN_MOTION,ECCENTRICITY,INCLINATION,RA_OF_ASC_NODE,ARG_OF_PERICENTER,MEAN_ANOMALY,EPHEMERIS_TYPE,CLASSIFICATION_TYPE,NORAD_CAT_ID,ELEMENT_SET_NO,REV_AT_EPOCH,BSTAR,MEAN_MOTION_DOT,MEAN_MOTION_DDOT
ZHONGXING-26,2023-023A,2026-03-01T11:19:35.012064,1.00270209,.0003383,0.0638,73.8220,319.4328,61.0070,0,U,55686,999,1115,0,-.372E-5,0
LUCH-5X (OLYMP-K 2),2023-031A,2026-03-01T18:07:15.034368,1.00272925,.0001672,0.0263,90.6628,123.7666,278.8944,0,U,55841,999,1086,0,.15E-6,0
GAOFEN-13 02,2023-036A,2026-03-01T10:42:38.937600,1.00268561,.0005148,1.0338,347.3841,333.5447,147.1290,0,U,55912,999,1101,0,-.237E-5,0
SES-18,2023-038A,2026-03-01T10:14:26.257920,1.00265374,.0002456,0.0668,273.2835,23.2371,273.1860,0,U,55970,999,1102,0,-.118E-5,0
SES-19,2023-038B,2026-03-01T12:29:14.472960,1.00271073,.0001788,0.0592,283.7981,46.9124,240.9938,0,U,55971,999,1100,0,.69E-6,0
INTELSAT 40E (IS-40E),2023-052A,2026-03-01T07:56:38.700672,1.00265658,.0000786,0.0108,160.0019,196.2460,191.0199,0,U,56174,999,1074,0,-.192E-5,0
VIASAT-3 F1,2023-060A,2026-03-01T03:46:38.623008,1.00270278,.0000509,0.0194,152.2932,270.4497,63.9230,0,U,56370,999,1035,0,0,0
ARCTURUS,2023-060B,2026-03-01T09:21:53.796672,1.00272704,.0000494,2.4966,81.3197,342.7635,308.0391,0,U,56371,999,1037,0,-.8E-6,0
GS-1,2023-060C,2026-02-27T20:54:09.673920,1.00300216,.00047788,2.4435,81.1492,259.4270,213.4380,0,U,56372,999,644,0,-.186E-5,0
BEIDOU-3 G4,2023-066A,2026-03-01T11:39:38.653056,1.00271975,.0001829,0.6544,310.4982,163.9264,19.7943,0,U,56564,999,1031,0,-.13E-5,0
ARABSAT-7B (BADR-8),2023-075A,2026-03-01T07:25:57.412128,1.00270846,.0005524,0.0797,29.7834,320.5251,306.2688,0,U,56757,999,1003,0,.126E-5,0
NVS-01 (IRNSS-1J),2023-076A,2026-03-01T11:04:38.776224,1.00275073,.0007624,2.4258,248.7393,43.8433,162.3108,0,U,56759,999,1003,0,-.358E-5,0
NUSANTARA TIGA (SATRIA),2023-086A,2026-03-01T09:42:51.785856,1.00267090,.0005944,0.0109,289.0615,36.3996,125.4654,0,U,57045,999,868,0,0,0
H2SAT (HEINRICH HERTZ),2023-093A,2026-03-01T07:18:43.106976,1.00282210,.000134,0.0531,290.6934,169.1190,169.6663,0,U,57213,999,983,0,-.15E-6,0
SYRACUSE 4B,2023-093B,2026-03-01T08:59:18.463200,1.00271864,.000025,0.0154,126.3932,224.7949,296.3149,0,U,57214,999,588,0,-.72E-6,0
JUPITER 3 (ECHOSTAR 24),2023-108A,2026-02-28T19:46:07.588416,1.00271931,.0001092,0.0119,129.2934,207.5755,23.0888,0,U,57479,999,956,0,-.168E-5,0
GALAXY 37 (G-37),2023-112A,2026-03-01T12:24:28.152000,1.00269896,.0002104,0.0267,133.5307,209.5454,235.3647,0,U,57493,999,946,0,0,0
LUDI TANCE-4 01A,2023-120A,2026-03-01T07:44:10.665888,1.00269213,.0005404,15.1773,196.6374,105.3645,62.8216,0,U,57624,999,946,0,-.212E-5,0
TJS-10,2023-169A,2026-03-01T18:35:50.052768,0.99766915,.0011235,2.2673,81.8024,232.6487,250.1732,0,U,58204,999,846,0,-.36E-5,0
ZHONGXING-6E,2023-172A,2026-03-01T11:16:50.275776,1.00269659,.0002535,0.0124,116.1692,231.9449,95.8745,0,U,58253,999,857,0,-.38E-5,0
YAOGAN-41,2023-197A,2026-03-01T11:18:57.572352,1.00276385,.0010373,3.3282,311.5523,182.3415,318.2642,0,U,58582,999,824,0,-.38E-5,0
OVZON-3,2024-003A,2026-03-01T11:59:43.699776,1.00273383,.0000222,0.0137,158.8747,130.4049,109.6041,0,U,58698,999,636,0,.33E-6,0
INSAT-3DS,2024-033A,2026-03-01T09:24:38.532960,1.00270381,.0002295,0.0629,266.1361,85.9860,30.2937,0,U,58990,999,4598,0,-.174E-5,0
MERAH PUTIH 2,2024-035A,2026-03-01T09:33:22.695840,1.00272299,.0001063,0.0100,177.2365,163.1004,75.1386,0,U,58995,999,750,0,-.376E-5,0
TJS-11,2024-037A,2026-03-01T06:10:04.689408,1.00275413,.0005693,4.3441,325.7641,37.2683,8.8310,0,U,59020,999,750,0,-.384E-5,0
HULIANWAN GAOGUI-01 (HG-01),2024-040A,2026-03-01T07:27:49.733856,1.00277077,.0004243,0.0615,314.2618,42.5849,307.8895,0,U,59069,999,624,0,.138E-5,0
EUTELSAT 36D,2024-059A,2026-03-01T08:26:38.539680,1.00270588,.0000354,0.0070,104.6171,205.0389,12.0033,0,U,59346,999,706,0,.137E-5,0
PAKSAT-MM1,2024-104A,2026-03-01T08:26:38.539680,1.00273939,.0003304,0.0101,134.1145,195.0385,354.8707,0,U,59915,999,644,0,.135E-5,0
ASTRA 1P (SES-24),2024-115A,2026-03-01T04:23:38.710752,1.00268917,.0005009,0.0589,334.1299,349.8668,280.0749,0,U,60086,999,611,0,.101E-5,0
GOES 19,2024-119A,2026-03-01T10:22:25.491936,1.00271551,.0000816,0.0254,282.0436,88.2243,229.3523,0,U,60133,999,588,0,-.267E-5,0
ZHONGXING-3A,2024-122A,2026-03-01T07:47:25.355328,1.00269680,.0001688,0.0259,117.6735,307.8431,312.0470,0,U,60179,999,622,0,0,0
